NORAD_CAT_ID,OBJECT_NAME,OBJECT_TYPE,EPOCH,MEAN_MOTION,ECCENTRICITY,INCLINATION,RA_OF_ASC_NODE,ARG_OF_PERICENTER,MEAN_ANOMALY,BSTAR,MEAN_MOTION_DOT,MEAN_MOTION_DDOT,TLE_LINE0,TLE_LINE1,TLE_LINE2,SEMIMAJOR_AXIS,PERIOD,APOGEE,PERIGEE,DECAYED
51896.0,STARLINK-3593,PAYLOAD,2022-03-16 20:00:01,15.7316456,0.0001599,53.2186,78.6565,54.1162,91.2775,0.00061083,0.00085856,0.0,0 STARLINK-3593,1 51896U 22022AW  22075.83334491  .00085856  00000-0  61083-3 0  9991,2 51896  53.2186  78.6565 0001599  54.1162  91.2775 15.73164560  2760,6727.996,91.535,350.93699999999984,348.785,0.0
51896.0,STARLINK-3593,PAYLOAD,2022-03-17 06:00:00,15.73237075,0.000181,53.2185,76.596,52.3705,294.1846,0.00015729,0.00021546,0.0,0 STARLINK-3593,1 51896U 22022AW  22076.25001157  .00021546  00000-0  15729-3 0  9990,2 51896  53.2185  76.5960 0001810  52.3705 294.1846 15.73237075  3412,6727.7890000000025,91.531,350.872,348.43699999999984,0.0
51896.0,STARLINK-3593,PAYLOAD,2022-03-17 14:00:01,15.73297549,0.0001683,53.218,74.9463,48.7393,26.795,-0.00066623,-0.00093482,0.0,0 STARLINK-3593,1 51896U 22022AW  22076.58334491 -.00093482  00000-0 -66623-3 0  9995,2 51896  53.2180  74.9463 0001683  48.7393  26.7950 15.73297549  2884,6727.6169999999975,91.528,350.61400000000015,348.35,0.0
51896.0,STARLINK-3593,PAYLOAD,2022-03-17 22:00:00,15.73231483,0.0001354,53.2181,73.295,56.0143,108.5252,0.00026714,0.00037087,0.0,0 STARLINK-3593,1 51896U 22022AW  22076.91667824  .00037087  00000-0  26714-3 0  9995,2 51896  53.2181  73.2950 0001354  56.0143 108.5252 15.73231483  2933,6727.805,91.531,350.581,348.759,0.0
51896.0,STARLINK-3593,PAYLOAD,2022-03-18 08:00:01,15.73231389,0.0001509,53.2187,71.2353,46.2885,319.4805,-0.00021732,-0.00031049,0.0,0 STARLINK-3593,1 51896U 22022AW  22077.33334491 -.00031049  00000-0 -21732-3 0  9992,2 51896  53.2187  71.2353 0001509  46.2885 319.4805 15.73231389  3584,6727.806,91.531,350.686,348.655,0.0
51896.0,STARLINK-3593,PAYLOAD,2022-03-18 14:00:01,15.73213644,0.0001496999999999,53.2186,69.9974,47.7383,294.7496,-0.00010635,-0.00015527,0.0,0 STARLINK-3593,1 51896U 22022AW  22077.58334491 -.00015527  00000-0 -10635-3 0  9992,2 51896  53.2186  69.9974 0001497  47.7383 294.7496 15.73213644  3047,6727.856,91.532,350.728,348.714,0.0
51896.0,STARLINK-3593,PAYLOAD,2022-03-18 20:00:01,15.73188064,0.0001403,53.2189,68.7588,54.3052,264.8921,0.00046894,0.00065675,0.0,0 STARLINK-3593,1 51896U 22022AW  22077.83334491  .00065675  00000-0  46894-3 0  9993,2 51896  53.2189  68.7588 0001403  54.3052 264.8921 15.73188064  3668,6727.929,91.534,350.73800000000006,348.85,0.0
51896.0,STARLINK-3593,PAYLOAD,2022-03-18 22:00:00,15.73219911,0.0001431999999999,53.219,68.3463,56.3407,15.0821,7.5225e-05,9.958e-05,0.0,0 STARLINK-3593,1 51896U 22022AW  22077.91667824  .00009958  00000-0  75225-4 0  9994,2 51896  53.2190  68.3463 0001432  56.3407  15.0821 15.73219911  3094,6727.8380000000025,91.532,350.667,348.74,0.0
51896.0,STARLINK-3593,PAYLOAD,2022-03-19 02:00:01,15.73251122,0.0001425,53.2192,67.5223,54.0778,241.8782,-0.00052947,-0.00074436,0.0,0 STARLINK-3593,1 51896U 22022AW  22078.08335648 -.00074436  00000-0 -52947-3 0  9999,2 51896  53.2192  67.5223 0001425  54.0778 241.8782 15.73251122  3702,6727.749,91.53,350.5730000000001,348.656,0.0
51896.0,STARLINK-3593,PAYLOAD,2022-03-19 14:00:01,15.73248851,0.0001336,53.2185,65.0487,46.3257,202.9603,-0.00035098,-0.0004969,0.0,0 STARLINK-3593,1 51896U 22022AW  22078.58334491 -.00049690  00000-0 -35098-3 0  9991,2 51896  53.2185  65.0487 0001336  46.3257 202.9603 15.73248851  3789,6727.755999999999,91.53,350.52,348.722,0.0
51896.0,STARLINK-3593,PAYLOAD,2022-03-19 22:00:01,15.72804831,0.0001534,53.2173,63.3897,61.6,276.7775,0.004002,0.00592482,0.0,0 STARLINK-3593,1 51896U 22022AW  22078.91668981  .00592482  00000-0  40020-2 0  9992,2 51896  53.2173  63.3897 0001534  61.6000 276.7775 15.72804831  3838,6729.022,91.556,351.9190000000001,349.855,0.0
51896.0,STARLINK-3593,PAYLOAD,2022-03-20 06:00:00,15.73234698,0.0001574,53.2192,61.7505,55.1579,12.0606,-0.00028808,-0.00040915,0.0,0 STARLINK-3593,1 51896U 22022AW  22079.25001157 -.00040915  00000-0 -28808-3 0  9998,2 51896  53.2192  61.7505 0001574  55.1579  12.0606 15.73234698  3888,6727.795999999999,91.531,350.72,348.602,0.0
51896.0,STARLINK-3593,PAYLOAD,2022-03-20 12:00:00,15.73221932,0.0001446,53.2192,60.5133,50.2878,353.6655,1.1788e-05,1.036e-05,0.0,0 STARLINK-3593,1 51896U 22022AW  22079.50001157  .00001036  00000-0  11788-4 0  9995,2 51896  53.2192  60.5133 0001446  50.2878 353.6655 15.73221932  3928,6727.833000000001,91.532,350.67,348.725,0.0
51896.0,STARLINK-3593,PAYLOAD,2022-03-20 14:00:01,15.732196,0.0001372,53.2195,60.1003,52.1736,104.0197,4.8013e-05,6.129e-05,0.0,0 STARLINK-3593,1 51896U 22022AW  22079.58334491  .00006129  00000-0  48013-4 0  9992,2 51896  53.2195  60.1003 0001372  52.1736 104.0197 15.73219600  3350,6727.839,91.532,350.62699999999984,348.781,0.0
51896.0,STARLINK-3593,PAYLOAD,2022-03-20 22:00:01,15.73244135,0.0001192,53.2199,58.4493,57.8511,187.3698,-0.00011272,-0.00016438,0.0,0 STARLINK-3593,1 51896U 22022AW  22079.91668981 -.00016438  00000-0 -11272-3 0  9995,2 51896  53.2199  58.4493 0001192  57.8511 187.3698 15.73244135  3418,6727.769,91.531,350.436,348.832,0.0
51896.0,STARLINK-3593,PAYLOAD,2022-03-21 14:00:01,15.732287699999995,0.0001137,53.2191,55.1519,44.3938,18.6564,-0.00066454,-0.00092971,0.0,0 STARLINK-3593,1 51896U 22022AW  22080.58334491 -.00092971  00000-0 -66454-3 0  9994,2 51896  53.2191  55.1519 0001137  44.3938  18.6564 15.73228770  4096,6727.813,91.532,350.4430000000001,348.913,0.0
51896.0,STARLINK-3593,PAYLOAD,2022-03-21 22:00:00,15.73153104,0.0001141,53.2188,53.5016,61.753,90.2121,0.00049664,0.00069518,0.0,0 STARLINK-3593,1 51896U 22022AW  22080.91667824  .00069518  00000-0  49664-3 0  9993,2 51896  53.2188  53.5016 0001141  61.7530  90.2121 15.73153104  3577,6728.029,91.536,350.662,349.126,0.0
51896.0,STARLINK-3593,PAYLOAD,2022-03-22 04:00:00,15.73211988,0.0001327,53.2182,52.2663,54.6209,74.0058,-0.00031068,-0.00044016,0.0,0 STARLINK-3593,1 51896U 22022AW  22081.16667824 -.00044016  00000-0 -31068-3 0  9998,2 51896  53.2182  52.2663 0001327  54.6209  74.0058 15.73211988  4187,6727.861,91.532,350.619,348.833,0.0
51896.0,STARLINK-3593,PAYLOAD,2022-03-22 14:00:01,15.73183174,0.0001382,53.2179,50.2039,58.8757,270.9082,9.1857e-05,0.00012281,0.0,0 STARLINK-3593,1 51896U 22022AW  22081.58334491  .00012281  00000-0  91857-4 0  9995,2 51896  53.2179  50.2039 0001382  58.8757 270.9082 15.73183174  3675,6727.943,91.534,350.73800000000006,348.87800000000016,0.0
51896.0,STARLINK-3593,PAYLOAD,2022-03-22 20:00:01,15.73173752,0.0001337,53.2181,48.9657,64.5493,241.9195,0.00060449,0.00084982,0.0,0 STARLINK-3593,1 51896U 22022AW  22081.83334491  .00084982  00000-0  60449-3 0  9992,2 51896  53.2181  48.9657 0001337  64.5493 241.9195 15.73173752  4292,6727.97,91.535,350.735,348.935,0.0
51896.0,STARLINK-3593,PAYLOAD,2022-03-22 22:00:01,15.73213424,0.0001383,53.2184,48.5535,65.6732,353.0807,0.00016421,0.000225,0.0,0 STARLINK-3593,1 51896U 22022AW  22081.91668981  .00022500  00000-0  16421-3 0  9994,2 51896  53.2184  48.5535 0001383  65.6732 353.0807 15.73213424  3728,6727.857,91.532,350.652,348.791,0.0
51896.0,STARLINK-3593,PAYLOAD,2022-03-23 08:00:01,15.73171285,0.0001441999999999,53.2183,46.4941,53.1522,206.7336,0.00036354,0.00050646,0.0,0 STARLINK-3593,1 51896U 22022AW  22082.33334491  .00050646  00000-0  36354-3 0  9996,2 51896  53.2183  46.4941 0001442  53.1522 206.7336 15.73171285  4371,6727.977,91.535,350.81199999999984,348.872,0.0
51896.0,STARLINK-3593,PAYLOAD,2022-03-23 14:00:01,15.73229565,0.0001386999999999,53.2178,45.2556,61.6147,174.9693,-0.0004667,-0.00065692,0.0,0 STARLINK-3593,1 51896U 22022AW  22082.58334491 -.00065692  00000-0 -46670-3 0  9994,2 51896  53.2178  45.2556 0001387  61.6147 174.9693 15.73229565  3713,6727.811,91.531,350.6090000000001,348.74300000000005,0.0
51896.0,STARLINK-3593,PAYLOAD,2022-03-23 20:00:01,15.73165586,0.0001365,53.2178,44.0175,71.2864,142.0013,0.00065203,0.00091757,0.0,0 STARLINK-3593,1 51896U 22022AW  22082.83334491  .00091757  00000-0  65203-3 0  9994,2 51896  53.2178  44.0175 0001365  71.2864 142.0013 15.73165586  4452,6727.993,91.535,350.777,348.94,0.0
51896.0,STARLINK-3593,PAYLOAD,2022-03-23 22:00:00,15.73194639,0.000138,53.2181,43.6055,71.5744,253.9328,0.00044124,0.00061747,0.0,0 STARLINK-3593,1 51896U 22022AW  22082.91667824  .00061747  00000-0  44124-3 0  9997,2 51896  53.2181  43.6055 0001380  71.5744 253.9328 15.73194639  3715,6727.91,91.533,350.704,348.847,0.0
51896.0,STARLINK-3593,PAYLOAD,2022-03-24 06:00:00,15.73241804,0.0001416,53.2181,41.9583,61.2702,353.176,-0.00043671,-0.00061572,0.0,0 STARLINK-3593,1 51896U 22022AW  22083.25001157 -.00061572  00000-0 -43671-3 0  9990,2 51896  53.2181  41.9583 0001416  61.2702 353.1760 15.73241804  4511,6727.776,91.531,350.594,348.68800000000016,0.0
51896.0,STARLINK-3593,PAYLOAD,2022-03-24 14:00:01,15.731956900000002,0.0001296999999999,53.2182,40.3072,64.454,78.9533,-0.0002217,-0.00031611,0.0,0 STARLINK-3593,1 51896U 22022AW  22083.58334491 -.00031611  00000-0 -22170-3 0  9998,2 51896  53.2182  40.3072 0001297  64.4540  78.9533 15.73195690  3699,6727.906999999997,91.533,350.645,348.9,0.0
51896.0,STARLINK-3593,PAYLOAD,2022-03-24 22:00:00,15.73198097,0.0001354,53.2186,38.6571,73.6551,158.6451,0.00020939,0.00028865,0.0,0 STARLINK-3593,1 51896U 22022AW  22083.91667824  .00028865  00000-0  20939-3 0  9990,2 51896  53.2186  38.6571 0001354  73.6551 158.6451 15.73198097  4628,6727.901,91.533,350.677,348.855,0.0
51896.0,STARLINK-3593,PAYLOAD,2022-03-25 12:00:00,15.73210816,0.0001144,53.2179,35.7716,60.6281,237.2882,-8.778200000000001e-05,-0.00012926,0.0,0 STARLINK-3593,1 51896U 22022AW  22084.50001157 -.00012926  00000-0 -87782-4 0  9990,2 51896  53.2179  35.7716 0001144  60.6281 237.2882 15.73210816  4718,6727.864000000001,91.533,350.499,348.96,0.0
